{"type": "FeatureCollection", "features": [ {"type": "Feature", "properties": {"norad_id": 64902, "name": "CO3D 2", "group": "resource", "lat": -77.23985719590202, "lon": -143.58822749985222, "alt_km": 513.1128030151804, "timestamp": "2025-12-21T11:31:42.499950+00:00", "meta": {"OBJECT_NAME": "CO3D 2", "OBJECT_ID": "2025-156D", "EPOCH": "2025-12-21T04:04:15.511872", "MEAN_MOTION": 15.20195116, "ECCENTRICITY": 7.99e-05, "INCLINATION": 97.4338, "RA_OF_ASC_NODE": 71.3141, "ARG_OF_PERICENTER": 71.3252, "MEAN_ANOMALY": 288.807, "EPHEMERIS_TYPE": 0, "CLASSIFICATION_TYPE": "U", "NORAD_CAT_ID": 64902, "ELEMENT_SET_NO": 999, "REV_AT_EPOCH": 2248, "BSTAR": 0.0008371, "MEAN_MOTION_DOT": 0.00018094, "MEAN_MOTION_DDOT": 0}, "tle": {"line1": "1 64902U 25156D   25355.16962398  .00018094  00000+0  83710-3 0  9997", "line2": "2 64902  97.4338  71.3141 0000799  71.3252 288.8070 15.20195116 22489"}}, "geometry": {"type": "Point", "coordinates": [-143.58822749985222, -77.23985719590202]}}, {"type": "Feature", "properties": {"norad_id": 64903, "name": "CO3D 1", "group": "resource", "lat": -76.51602807549354, "lon": -141.37316875027943, "alt_km": 513.1854018305921, "timestamp": "2025-12-21T11:31:42.499960+00:00", "meta": {"OBJECT_NAME": "CO3D 1", "OBJECT_ID": "2025-156E", "EPOCH": "2025-12-21T04:04:29.584704", "MEAN_MOTION": 15.20203669, "ECCENTRICITY": 9e-05, "INCLINATION": 97.4342, "RA_OF_ASC_NODE": 71.3151, "ARG_OF_PERICENTER": 79.0049, "MEAN_ANOMALY": 281.1288, "EPHEMERIS_TYPE": 0, "CLASSIFICATION_TYPE": "U", "NORAD_CAT_ID": 64903, "ELEMENT_SET_NO": 999, "REV_AT_EPOCH": 2248, "BSTAR": 0.00020274, "MEAN_MOTION_DOT": 4.324e-05, "MEAN_MOTION_DDOT": 0}, "tle": {"line1": "1 64903U 25156E   25355.16978686  .00004324  00000+0  20274-3 0  9992", "line2": "2 64903  97.4342  71.3151 0000900  79.0049 281.1288 15.20203669 22489"}}, "geometry": {"type": "Point", "coordinates": [-141.37316875027943, -76.51602807549354]}}, {"type": "Feature", "properties": {"norad_id": 66514, "name": "SENTINEL-6B", "group": "resource", "lat": 65.69469557653134, "lon": -115.66160885592463, "alt_km": 1334.2426550983118, "timestamp": "2025-12-21T11:31:42.499970+00:00", "meta": {"OBJECT_NAME": "SENTINEL-6B", "OBJECT_ID": "2025-264A", "EPOCH": "2025-12-12T06:01:21.427680", "MEAN_MOTION": 12.81479575, "ECCENTRICITY": 0.0007848, "INCLINATION": 66.0385, "RA_OF_ASC_NODE": 163.4531, "ARG_OF_PERICENTER": 270.1375, "MEAN_ANOMALY": 89.8741, "EPHEMERIS_TYPE": 0, "CLASSIFICATION_TYPE": "U", "NORAD_CAT_ID": 66514, "ELEMENT_SET_NO": 999, "REV_AT_EPOCH": 322, "BSTAR": 0.00018195, "MEAN_MOTION_DOT": -1.9e-07, "MEAN_MOTION_DDOT": 0}, "tle": {"line1": "1 66514U 25264A   25346.25094245 -.00000019  00000+0  18195-3 0  9999", "line2": "2 66514  66.0385 163.4531 0007848 270.1375  89.8741 12.81479575  3220"}}, "geometry": {"type": "Point", "coordinates": [-115.66160885592463, 65.69469557653134]}}]}